ORBCOMM FM103           
1 40091U 14040F   24258.44719281  .00003966  00000+0  90905-3 0  9999
2 40091  47.0031 239.0715 0001174  79.8167 280.2851 14.57057746523876
ORBCOMM FM114           
1 41179U 15081A   24258.81903976  .00003750  00000+0  86262-3 0  9992
2 41179  47.0015 146.5163 0002243 175.3726 184.7180 14.57009740464346
ORBCOMM FM119           
1 41180U 15081B   24258.52101681  .00003868  00000+0  88786-3 0  9998
2 41180  46.9998  57.1536 0002188 236.1532 123.9145 14.57038741465504
ORBCOMM FM105           
1 41181U 15081C   24258.40121481  .00002363  00000+0  72119-3 0  9998
2 41181  47.0017  36.3289 0001959 189.1948 170.8897 14.44639018460865
ORBCOMM FM110           
1 41182U 15081D   24258.38388002  .00006030  00000+0  13607-2 0  9991
2 41182  47.0004 147.9541 0001675 318.8471  41.2288 14.57117610464108
ORBCOMM FM118           
1 41183U 15081E   24258.84185563  .00003708  00000+0  85325-3 0  9996
2 41183  47.0030 146.1352 0001932 311.1292  48.9426 14.57008214464356
ORBCOMM FM112           
1 41184U 15081F   24258.56670057  .00003300  00000+0  76369-3 0  9999
2 41184  46.9986  56.1344 0002367 222.5172 137.5530 14.56995369465459
ORBCOMM FM113           
1 41185U 15081G   24258.54384585  .00004834  00000+0  11007-2 0  9996
2 41185  47.0005  56.5289 0002182 235.3160 124.7520 14.57020649465436
