<?xml version="1.0" encoding="UTF-8"?>
<ndm xmlns:xsi="http://www.w3.org/2001/XMLSchema-instance" xsi:noNamespaceSchemaLocation="https://sanaregistry.org/r/ndmxml_unqualified/ndmxml-2.0.0-master-2.0.xsd">
<omm id="CCSDS_OMM_VERS" version="2.0">
<header><CREATION_DATE/><ORIGINATOR/></header><body><segment><metadata><OBJECT_NAME>ORBCOMM FM103</OBJECT_NAME><OBJECT_ID>2014-040F</OBJECT_ID><CENTER_NAME>EARTH</CENTER_NAME><REF_FRAME>TEME</REF_FRAME><TIME_SYSTEM>UTC</TIME_SYSTEM><MEAN_ELEMENT_THEORY>SGP4</MEAN_ELEMENT_THEORY></metadata><data><meanElements><EPOCH>2024-09-14T10:43:57.458784</EPOCH><MEAN_MOTION>14.57057746</MEAN_MOTION><ECCENTRICITY>.0001174</ECCENTRICITY><INCLINATION>47.0031</INCLINATION><RA_OF_ASC_NODE>239.0715</RA_OF_ASC_NODE><ARG_OF_PERICENTER>79.8167</ARG_OF_PERICENTER><MEAN_ANOMALY>280.2851</MEAN_ANOMALY></meanElements><tleParameters><EPHEMERIS_TYPE>0</EPHEMERIS_TYPE><CLASSIFICATION_TYPE>U</CLASSIFICATION_TYPE><NORAD_CAT_ID>40091</NORAD_CAT_ID><ELEMENT_SET_NO>999</ELEMENT_SET_NO><REV_AT_EPOCH>52387</REV_AT_EPOCH><BSTAR>.90905E-3</BSTAR><MEAN_MOTION_DOT>.3966E-4</MEAN_MOTION_DOT><MEAN_MOTION_DDOT>0</MEAN_MOTION_DDOT></tleParameters></data></segment></body></omm>
<omm id="CCSDS_OMM_VERS" version="2.0">
<header><CREATION_DATE/><ORIGINATOR/></header><body><segment><metadata><OBJECT_NAME>ORBCOMM FM114</OBJECT_NAME><OBJECT_ID>2015-081A</OBJECT_ID><CENTER_NAME>EARTH</CENTER_NAME><REF_FRAME>TEME</REF_FRAME><TIME_SYSTEM>UTC</TIME_SYSTEM><MEAN_ELEMENT_THEORY>SGP4</MEAN_ELEMENT_THEORY></metadata><data><meanElements><EPOCH>2024-09-14T19:39:25.035264</EPOCH><MEAN_MOTION>14.57009740</MEAN_MOTION><ECCENTRICITY>.0002243</ECCENTRICITY><INCLINATION>47.0015</INCLINATION><RA_OF_ASC_NODE>146.5163</RA_OF_ASC_NODE><ARG_OF_PERICENTER>175.3726</ARG_OF_PERICENTER><MEAN_ANOMALY>184.7180</MEAN_ANOMALY></meanElements><tleParameters><EPHEMERIS_TYPE>0</EPHEMERIS_TYPE><CLASSIFICATION_TYPE>U</CLASSIFICATION_TYPE><NORAD_CAT_ID>41179</NORAD_CAT_ID><ELEMENT_SET_NO>999</ELEMENT_SET_NO><REV_AT_EPOCH>46434</REV_AT_EPOCH><BSTAR>.86262E-3</BSTAR><MEAN_MOTION_DOT>.375E-4</MEAN_MOTION_DOT><MEAN_MOTION_DDOT>0</MEAN_MOTION_DDOT></tleParameters></data></segment></body></omm>
<omm id="CCSDS_OMM_VERS" version="2.0">
<header><CREATION_DATE/><ORIGINATOR/></header><body><segment><metadata><OBJECT_NAME>ORBCOMM FM119</OBJECT_NAME><OBJECT_ID>2015-081B</OBJECT_ID><CENTER_NAME>EARTH</CENTER_NAME><REF_FRAME>TEME</REF_FRAME><TIME_SYSTEM>UTC</TIME_SYSTEM><MEAN_ELEMENT_THEORY>SGP4</MEAN_ELEMENT_THEORY></metadata><data><meanElements><EPOCH>2024-09-14T12:30:15.852384</EPOCH><MEAN_MOTION>14.57038741</MEAN_MOTION><ECCENTRICITY>.0002188</ECCENTRICITY><INCLINATION>46.9998</INCLINATION><RA_OF_ASC_NODE>57.1536</RA_OF_ASC_NODE><ARG_OF_PERICENTER>236.1532</ARG_OF_PERICENTER><MEAN_ANOMALY>123.9145</MEAN_ANOMALY></meanElements><tleParameters><EPHEMERIS_TYPE>0</EPHEMERIS_TYPE><CLASSIFICATION_TYPE>U</CLASSIFICATION_TYPE><NORAD_CAT_ID>41180</NORAD_CAT_ID><ELEMENT_SET_NO>999</ELEMENT_SET_NO><REV_AT_EPOCH>46550</REV_AT_EPOCH><BSTAR>.88786E-3</BSTAR><MEAN_MOTION_DOT>.3868E-4</MEAN_MOTION_DOT><MEAN_MOTION_DDOT>0</MEAN_MOTION_DDOT></tleParameters></data></segment></body></omm>
<omm id="CCSDS_OMM_VERS" version="2.0">
<header><CREATION_DATE/><ORIGINATOR/></header><body><segment><metadata><OBJECT_NAME>ORBCOMM FM105</OBJECT_NAME><OBJECT_ID>2015-081C</OBJECT_ID><CENTER_NAME>EARTH</CENTER_NAME><REF_FRAME>TEME</REF_FRAME><TIME_SYSTEM>UTC</TIME_SYSTEM><MEAN_ELEMENT_THEORY>SGP4</MEAN_ELEMENT_THEORY></metadata><data><meanElements><EPOCH>2024-09-14T09:37:44.959584</EPOCH><MEAN_MOTION>14.44639018</MEAN_MOTION><ECCENTRICITY>.0001959</ECCENTRICITY><INCLINATION>47.0017</INCLINATION><RA_OF_ASC_NODE>36.3289</RA_OF_ASC_NODE><ARG_OF_PERICENTER>189.1948</ARG_OF_PERICENTER><MEAN_ANOMALY>170.8897</MEAN_ANOMALY></meanElements><tleParameters><EPHEMERIS_TYPE>0</EPHEMERIS_TYPE><CLASSIFICATION_TYPE>U</CLASSIFICATION_TYPE><NORAD_CAT_ID>41181</NORAD_CAT_ID><ELEMENT_SET_NO>999</ELEMENT_SET_NO><REV_AT_EPOCH>46086</REV_AT_EPOCH><BSTAR>.72119E-3</BSTAR><MEAN_MOTION_DOT>.2363E-4</MEAN_MOTION_DOT><MEAN_MOTION_DDOT>0</MEAN_MOTION_DDOT></tleParameters></data></segment></body></omm>
<omm id="CCSDS_OMM_VERS" version="2.0">
<header><CREATION_DATE/><ORIGINATOR/></header><body><segment><metadata><OBJECT_NAME>ORBCOMM FM110</OBJECT_NAME><OBJECT_ID>2015-081D</OBJECT_ID><CENTER_NAME>EARTH</CENTER_NAME><REF_FRAME>TEME</REF_FRAME><TIME_SYSTEM>UTC</TIME_SYSTEM><MEAN_ELEMENT_THEORY>SGP4</MEAN_ELEMENT_THEORY></metadata><data><meanElements><EPOCH>2024-09-14T09:12:47.233728</EPOCH><MEAN_MOTION>14.57117610</MEAN_MOTION><ECCENTRICITY>.0001675</ECCENTRICITY><INCLINATION>47.0004</INCLINATION><RA_OF_ASC_NODE>147.9541</RA_OF_ASC_NODE><ARG_OF_PERICENTER>318.8471</ARG_OF_PERICENTER><MEAN_ANOMALY>41.2288</MEAN_ANOMALY></meanElements><tleParameters><EPHEMERIS_TYPE>0</EPHEMERIS_TYPE><CLASSIFICATION_TYPE>U</CLASSIFICATION_TYPE><NORAD_CAT_ID>41182</NORAD_CAT_ID><ELEMENT_SET_NO>999</ELEMENT_SET_NO><REV_AT_EPOCH>46410</REV_AT_EPOCH><BSTAR>.13607E-2</BSTAR><MEAN_MOTION_DOT>.603E-4</MEAN_MOTION_DOT><MEAN_MOTION_DDOT>0</MEAN_MOTION_DDOT></tleParameters></data></segment></body></omm>
<omm id="CCSDS_OMM_VERS" version="2.0">
<header><CREATION_DATE/><ORIGINATOR/></header><body><segment><metadata><OBJECT_NAME>ORBCOMM FM118</OBJECT_NAME><OBJECT_ID>2015-081E</OBJECT_ID><CENTER_NAME>EARTH</CENTER_NAME><REF_FRAME>TEME</REF_FRAME><TIME_SYSTEM>UTC</TIME_SYSTEM><MEAN_ELEMENT_THEORY>SGP4</MEAN_ELEMENT_THEORY></metadata><data><meanElements><EPOCH>2024-09-14T20:12:16.326432</EPOCH><MEAN_MOTION>14.57008214</MEAN_MOTION><ECCENTRICITY>.0001932</ECCENTRICITY><INCLINATION>47.0030</INCLINATION><RA_OF_ASC_NODE>146.1352</RA_OF_ASC_NODE><ARG_OF_PERICENTER>311.1292</ARG_OF_PERICENTER><MEAN_ANOMALY>48.9426</MEAN_ANOMALY></meanElements><tleParameters><EPHEMERIS_TYPE>0</EPHEMERIS_TYPE><CLASSIFICATION_TYPE>U</CLASSIFICATION_TYPE><NORAD_CAT_ID>41183</NORAD_CAT_ID><ELEMENT_SET_NO>999</ELEMENT_SET_NO><REV_AT_EPOCH>46435</REV_AT_EPOCH><BSTAR>.85325E-3</BSTAR><MEAN_MOTION_DOT>.3708E-4</MEAN_MOTION_DOT><MEAN_MOTION_DDOT>0</MEAN_MOTION_DDOT></tleParameters></data></segment></body></omm>
<omm id="CCSDS_OMM_VERS" version="2.0">
<header><CREATION_DATE/><ORIGINATOR/></header><body><segment><metadata><OBJECT_NAME>ORBCOMM FM112</OBJECT_NAME><OBJECT_ID>2015-081F</OBJECT_ID><CENTER_NAME>EARTH</CENTER_NAME><REF_FRAME>TEME</REF_FRAME><TIME_SYSTEM>UTC</TIME_SYSTEM><MEAN_ELEMENT_THEORY>SGP4</MEAN_ELEMENT_THEORY></metadata><data><meanElements><EPOCH>2024-09-14T13:36:02.929248</EPOCH><MEAN_MOTION>14.56995369</MEAN_MOTION><ECCENTRICITY>.0002367</ECCENTRICITY><INCLINATION>46.9986</INCLINATION><RA_OF_ASC_NODE>56.1344</RA_OF_ASC_NODE><ARG_OF_PERICENTER>222.5172</ARG_OF_PERICENTER><MEAN_ANOMALY>137.5530</MEAN_ANOMALY></meanElements><tleParameters><EPHEMERIS_TYPE>0</EPHEMERIS_TYPE><CLASSIFICATION_TYPE>U</CLASSIFICATION_TYPE><NORAD_CAT_ID>41184</NORAD_CAT_ID><ELEMENT_SET_NO>999</ELEMENT_SET_NO><REV_AT_EPOCH>46545</REV_AT_EPOCH><BSTAR>.76369E-3</BSTAR><MEAN_MOTION_DOT>.33E-4</MEAN_MOTION_DOT><MEAN_MOTION_DDOT>0</MEAN_MOTION_DDOT></tleParameters></data></segment></body></omm>
<omm id="CCSDS_OMM_VERS" version="2.0">
<header><CREATION_DATE/><ORIGINATOR/></header><body><segment><metadata><OBJECT_NAME>ORBCOMM FM113</OBJECT_NAME><OBJECT_ID>2015-081G</OBJECT_ID><CENTER_NAME>EARTH</CENTER_NAME><REF_FRAME>TEME</REF_FRAME><TIME_SYSTEM>UTC</TIME_SYSTEM><MEAN_ELEMENT_THEORY>SGP4</MEAN_ELEMENT_THEORY></metadata><data><meanElements><EPOCH>2024-09-14T13:03:08.281440</EPOCH><MEAN_MOTION>14.57020649</MEAN_MOTION><ECCENTRICITY>.0002182</ECCENTRICITY><INCLINATION>47.0005</INCLINATION><RA_OF_ASC_NODE>56.5289</RA_OF_ASC_NODE><ARG_OF_PERICENTER>235.3160</ARG_OF_PERICENTER><MEAN_ANOMALY>124.7520</MEAN_ANOMALY></meanElements><tleParameters><EPHEMERIS_TYPE>0</EPHEMERIS_TYPE><CLASSIFICATION_TYPE>U</CLASSIFICATION_TYPE><NORAD_CAT_ID>41185</NORAD_CAT_ID><ELEMENT_SET_NO>999</ELEMENT_SET_NO><REV_AT_EPOCH>46543</REV_AT_EPOCH><BSTAR>.11007E-2</BSTAR><MEAN_MOTION_DOT>.4834E-4</MEAN_MOTION_DOT><MEAN_MOTION_DDOT>0</MEAN_MOTION_DDOT></tleParameters></data></segment></body></omm>

</ndm>
